GPS BIIR-2  (PRN 13)    
1 24876U 97035A   22280.54310043  .00000040  00000+0  00000+0 0  9997
2 24876  55.5229 151.3005 0063469  52.7307 307.9403  2.00563239184902
GPS BIIR-4  (PRN 20)    
1 26360U 00025A   22280.89816083 -.00000015  00000+0  00000+0 0  9996
2 26360  54.1530  74.2255 0047995 186.4217 161.4217  2.00564366164224
GPS BIIR-6  (PRN 22)    
1 26605U 00071A   22280.64855924  .00000043  00000+0  00000+0 0  9999
2 26605  55.1085 148.2408 0136741 254.5603  37.9997  2.00555038160468
GPS BIIR-8  (PRN 16)    
1 27663U 03005A   22280.68046803 -.00000015  00000+0  00000+0 0  9996
2 27663  55.4414 268.6015 0126825  41.2038 126.4363  2.00557911144261
GPS BIIR-9  (PRN 21)    
1 27704U 03010A   22280.67441494 -.00000107  00000+0  00000+0 0  9994
2 27704  55.0601  18.7693 0245524 308.7772  69.9882  2.00561096143064
GPS BIIR-11 (PRN 19)    
1 28190U 04009A   22280.79161538 -.00000063  00000+0  00000+0 0  9995
2 28190  55.9324 329.6081 0089133 126.3924 276.0091  2.00557838135901
GPS BIIR-13 (PRN 02)    
1 28474U 04045A   22280.87093462 -.00000107  00000+0  00000+0 0  9998
2 28474  55.3859  18.9443 0202893 280.0871  47.8869  2.00421280131388
GPS BIIRM-1 (PRN 17)    
1 28874U 05038A   22280.90401382 -.00000059  00000+0  00000+0 0  9999
2 28874  55.9940 327.0423 0140267 275.4470 235.6467  2.00568767124790
GPS BIIRM-2 (PRN 31)    
1 29486U 06042A   22280.64841175 -.00000030  00000+0  00000+0 0  9993
2 29486  54.7046 204.8163 0104997  24.0385 215.9216  2.00572501117347
GPS BIIRM-3 (PRN 12)    
1 29601U 06052A   22280.26192540 -.00000011  00000+0  00000+0 0  9995
2 29601  55.4520 267.5610 0082901  75.0213 285.8890  2.00557015116357
GPS BIIRM-4 (PRN 15)    
1 32260U 07047A   22280.56793132  .00000050  00000+0  00000+0 0  9994
2 32260  53.3434 135.8963 0144229  65.1034 296.4867  2.00568689109762
GPS BIIRM-5 (PRN 29)    
1 32384U 07062A   22280.47615054 -.00000058  00000+0  00000+0 0  9993
2 32384  56.1167 327.8352 0020532 146.7160 274.8687  2.00568149108461
GPS BIIRM-6 (PRN 07)    
1 32711U 08012A   22280.48419543 -.00000031  00000+0  00000+0 0  9990
2 32711  54.4661 203.7323 0166036 232.1164 126.3750  2.00568105106708
GPS BIIRM-8 (PRN 05)    
1 35752U 09043A   22280.49915432  .00000006  00000+0  00000+0 0  9993
2 35752  55.1607  81.0203 0057929  63.8051 318.1072  2.00578525 96312
GPS BIIF-1  (PRN 25)    
1 36585U 10022A   22280.54617701 -.00000017  00000+0  00000+0 0  9994
2 36585  54.7388 262.9909 0104080  56.7505 121.8587  2.00570998 90542
GPS BIIF-2  (PRN 01)    
1 37753U 11036A   22280.69383587 -.00000102  00000+0  00000+0 0  9991
2 37753  56.6522  24.3407 0118278  53.4831 314.7755  2.00565919 82238
GPS BIIF-3  (PRN 24)    
1 38833U 12053A   22280.16804585 -.00000030  00000+0  00000+0 0  9999
2 38833  53.5224 198.7783 0129834  47.7527 313.3508  2.00563118 72389
GPS BIIF-4  (PRN 27)    
1 39166U 13023A   22280.52490094 -.00000052  00000+0  00000+0 0  9997
2 39166  55.6178 323.3860 0104704  38.2946 322.5099  2.00565282 68837
GPS BIIF-5  (PRN 30)    
1 39533U 14008A   22280.52746751 -.00000031  00000+0  00000+0 0  9990
2 39533  53.6146 204.2818 0060534 209.6446 150.0133  2.00559705 62637
GPS BIIF-6  (PRN 06)    
1 39741U 14026A   22280.81006867 -.00000103  00000+0  00000+0 0  9990
2 39741  56.6120  23.8619 0026688 304.9781  54.7808  2.00580455 61498
GPS BIIF-7  (PRN 09)    
1 40105U 14045A   22280.39483035  .00000047  00000+0  00000+0 0  9992
2 40105  54.7144 142.3344 0023447 111.3914 248.9548  2.00554828 59028
GPS BIIF-8  (PRN 03)    
1 40294U 14068A   22279.76311547  .00000020  00000+0  00000+0 0  9994
2 40294  55.9033  83.5410 0043078  59.6048 300.8477  2.00579136 58141
GPS BIIF-9  (PRN 26)    
1 40534U 15013A   22280.40853494 -.00000020  00000+0  00000+0 0  9998
2 40534  53.6390 260.0548 0071571  20.0287 340.2310  2.00575162 54773
GPS BIIF-10 (PRN 08)    
1 40730U 15033A   22280.56556117 -.00000052  00000+0  00000+0 0  9992
2 40730  55.1135 322.1594 0075489   7.5103 352.6669  2.00572288 52942
GPS BIIF-11 (PRN 10)    
1 41019U 15062A   22280.61528121  .00000012  00000+0  00000+0 0  9990
2 41019  55.8916  83.3527 0081444 217.4450 142.0087  2.00562511 50787
GPS BIIF-12 (PRN 32)    
1 41328U 16007A   22280.20452664  .00000046  00000+0  00000+0 0  9993
2 41328  54.9287 143.0405 0062893 229.7631 129.7792  2.00565508 48785
GPS BIII-1  (PRN 04)    
1 43873U 18109A   22280.78666360  .00000047  00000+0  00000+0 0  9999
2 43873  55.1079 145.4606 0020870 188.2461 124.5401  2.00554803 28023
GPS BIII-2  (PRN 18)    
1 44506U 19056A   22280.60447848 -.00000103  00000+0  00000+0 0  9998
2 44506  55.7268  24.5943 0028895 181.7172 259.6742  2.00558344 23023
GPS BIII-3  (PRN 23)    
1 45854U 20041A   22280.34604604  .00000011  00000+0  00000+0 0  9994
2 45854  55.6106  81.8714 0027251 178.3213  14.2891  2.00569163 16983
GPS BIII-4  (PRN 14)    
1 46826U 20078A   22280.34737993 -.00000015  00000+0  00000+0 0  9997
2 46826  54.4991 265.5523 0023680 191.8040 338.6932  2.00565034 14453
GPS BIII-5  (PRN 11)    
1 48859U 21054A   22280.85533809 -.00000103  00000+0  00000+0 0  9994
2 48859  55.2356  26.5290 0008140 200.7577 161.5812  2.00566752  9711
